{
    "links": {
        "self": "http://www.neowsapp.com/rest/v1/neo/3698846?api_key=iIulBulltgU6a56xZRHN4H3l9WmuAYTsLGpBGhQ2"
    },
    "id": "3698846",
    "neo_reference_id": "3698846",
    "name": "(2014 WV202)",
    "designation": "2014 WV202",
    "nasa_jpl_url": "http://ssd.jpl.nasa.gov/sbdb.cgi?sstr=3698846",
    "absolute_magnitude_h": 23.8,
    "estimated_diameter": {
        "kilometers": {
            "estimated_diameter_min": 0.046190746,
            "estimated_diameter_max": 0.1032856481
        },
        "meters": {
            "estimated_diameter_min": 46.1907460282,
            "estimated_diameter_max": 103.2856480504
        },
        "miles": {
            "estimated_diameter_min": 0.0287015901,
            "estimated_diameter_max": 0.0641787064
        },
        "feet": {
            "estimated_diameter_min": 151.544447199,
            "estimated_diameter_max": 338.8636855496
        }
    },
    "is_potentially_hazardous_asteroid": false,
    "close_approach_data": [
        {
            "close_approach_date": "2014-06-17",
            "close_approach_date_full": "2014-Jun-17 22:13",
            "epoch_date_close_approach": 1403043180000,
            "relative_velocity": {
                "kilometers_per_second": "10.9582977638",
                "kilometers_per_hour": "39449.8719495929",
                "miles_per_hour": "24512.6162677901"
            },
            "miss_distance": {
                "astronomical": "0.2384816744",
                "lunar": "92.7693713416",
                "kilometers": "35676350.524273528",
                "miles": "22168256.2600815664"
            },
            "orbiting_body": "Earth"
        },
        {
            "close_approach_date": "2014-11-22",
            "close_approach_date_full": "2014-Nov-22 02:05",
            "epoch_date_close_approach": 1416621900000,
            "relative_velocity": {
                "kilometers_per_second": "11.4557793122",
                "kilometers_per_hour": "41240.8055240399",
                "miles_per_hour": "25625.4327435347"
            },
            "miss_distance": {
                "astronomical": "0.1057908701",
                "lunar": "41.1526484689",
                "kilometers": "15826088.832406687",
                "miles": "9833875.5975868006"
            },
            "orbiting_body": "Earth"
        }
    ],
    "orbital_data": {
        "orbit_id": "4",
        "orbit_determination_date": "2017-04-06 08:37:12",
        "first_observation_date": "2014-11-24",
        "last_observation_date": "2014-11-29",
        "data_arc_in_days": 5,
        "observations_used": 11,
        "orbit_uncertainty": "8",
        "minimum_orbit_intersection": ".105579",
        "jupiter_tisserand_invariant": "5.111",
        "epoch_osculation": "2456986.5",
        "eccentricity": ".1858227502223301",
        "semi_major_axis": "1.23543136574983",
        "inclination": "20.07794917409628",
        "ascending_node_longitude": "66.36279323100869",
        "orbital_period": "501.5640051591473",
        "perihelion_distance": "1.005860111655267",
        "perihelion_argument": "295.6516202514057",
        "aphelion_distance": "1.465002619844393",
        "perihelion_time": "2456927.492109955896",
        "mean_anomaly": "42.35319958643573",
        "mean_motion": ".7177548554062831",
        "equinox": "J2000",
        "orbit_class": {
            "orbit_class_type": "APO",
            "orbit_class_description": "Near-Earth asteroid orbits which cross the Earth’s orbit similar to that of 1862 Apollo",
            "orbit_class_range": "a (semi-major axis) > 1.0 AU; q (perihelion) < 1.017 AU"
        }
    },
    "is_sentry_object": false
}